NORAD_CAT_ID,OBJECT_NAME,OBJECT_TYPE,EPOCH,MEAN_MOTION,ECCENTRICITY,INCLINATION,RA_OF_ASC_NODE,ARG_OF_PERICENTER,MEAN_ANOMALY,BSTAR,MEAN_MOTION_DOT,MEAN_MOTION_DDOT,TLE_LINE0,TLE_LINE1,TLE_LINE2,SEMIMAJOR_AXIS,PERIOD,APOGEE,PERIGEE,DECAYED
54169.0,STARLINK-5282,PAYLOAD,2023-09-05 02:56:41,15.08850353,0.0001013,53.2158,158.2975,80.7034,279.4073,0.00043317,6.615e-05,0.0,0 STARLINK-5282,1 54169U 22141N   23248.12270105  .00006615  00000-0  43317-3 0  9991,2 54169  53.2158 158.2975 0001013  80.7034 279.4073 15.08850353 47499,6917.849,95.437,540.415,539.013,0.0
54169.0,STARLINK-5282,PAYLOAD,2023-09-06 02:47:28,15.08845559,9.31e-05,53.2151,153.8374,82.3102,277.7995,0.00014298,1.989e-05,0.0,0 STARLINK-5282,1 54169U 22141N   23249.11630020  .00001989  00000-0  14298-3 0  9992,2 54169  53.2151 153.8374 0000931  82.3102 277.7995 15.08845559 47641,6917.863,95.437,540.372,539.084,0.0
54169.0,STARLINK-5282,PAYLOAD,2023-09-07 02:38:14,15.08854117,0.0001192,53.2159,149.3781,87.5561,272.5567,0.00028237,4.211e-05,0.0,0 STARLINK-5282,1 54169U 22141N   23250.10989547  .00004211  00000-0  28237-3 0  9993,2 54169  53.2159 149.3781 0001192  87.5561 272.5567 15.08854117 47791,6917.837,95.437,540.527,538.878,0.0
54169.0,STARLINK-5282,PAYLOAD,2023-09-07 16:56:42,15.08890591,0.0002129,53.2177,146.6992,97.2845,262.8389,-0.0012601,-0.00020315,0.0,0 STARLINK-5282,1 54169U 22141N   23250.70604784 -.00020315  00000-0 -12601-2 0  9998,2 54169  53.2177 146.6992 0002129  97.2845 262.8389 15.08890591 47889,6917.726,95.434,541.064,538.118,0.0
54169.0,STARLINK-5282,PAYLOAD,2023-09-07 23:18:16,15.08838806,0.0001052,53.2161,145.5128,69.5939,290.5167,8.5192e-05,1.068e-05,0.0,0 STARLINK-5282,1 54169U 22141N   23250.97102439  .00001068  00000-0  85192-4 0  9996,2 54169  53.2161 145.5128 0001052  69.5939 290.5167 15.08838806 47929,6917.884,95.438,540.477,539.021,0.0
54169.0,STARLINK-5282,PAYLOAD,2023-09-08 16:47:32,15.08820349,0.0001936,53.2176,142.2391,99.7291,260.392,-1.3087e-05,-4.96e-06,0.0,0 STARLINK-5282,1 54169U 22141N   23251.69968073 -.00000496  00000-0 -13087-4 0  9990,2 54169  53.2176 142.2391 0001936  99.7291 260.3920 15.08820349 48036,6917.94,95.439,541.145,538.466,0.0
54169.0,STARLINK-5282,PAYLOAD,2023-09-09 10:16:47,15.08831911,0.0001597,53.2176,138.9692,103.044,257.0731,0.00018783,2.702e-05,0.0,0 STARLINK-5282,1 54169U 22141N   23252.42832430  .00002702  00000-0  18783-3 0  9996,2 54169  53.2176 138.9692 0001597 103.0440 257.0731 15.08831911 48142,6917.905,95.438,540.875,538.665,0.0
54169.0,STARLINK-5282,PAYLOAD,2023-09-09 22:59:51,15.08855868,0.0001146,53.2164,136.5894,94.1946,265.9177,0.0007306,0.00011364,0.0,0 STARLINK-5282,1 54169U 22141N   23252.95823936  .00011364  00000-0  73060-3 0  9998,2 54169  53.2164 136.5894 0001146  94.1946 265.9177 15.08855868 48226,6917.832,95.437,540.49,538.904,0.0
54169.0,STARLINK-5282,PAYLOAD,2023-09-10 02:10:38,15.08862634,0.0001165,53.2165,135.995,94.0488,266.0638,0.0011165,0.00017537,0.0,0 STARLINK-5282,1 54169U 22141N   23253.09072029  .00017537  00000-0  11165-2 0  9998,2 54169  53.2165 135.9950 0001165  94.0488 266.0638 15.08862634 48249,6917.811,95.436,540.482,538.87,0.0
54169.0,STARLINK-5282,PAYLOAD,2023-09-10 19:39:52,15.08857591,0.0001191,53.2167,132.7249,92.2421,267.8708,0.00023882,3.517e-05,0.0,0 STARLINK-5282,1 54169U 22141N   23253.81935470  .00003517  00000-0  23882-3 0  9999,2 54169  53.2167 132.7249 0001191  92.2421 267.8708 15.08857591 48358,6917.827,95.436,540.516,538.868,0.0
54169.0,STARLINK-5282,PAYLOAD,2023-09-11 08:22:56,15.08862872,0.0001172,53.2167,130.3453,87.5881,272.5245,0.00071719,0.00011152,0.0,0 STARLINK-5282,1 54169U 22141N   23254.34926800  .00011152  00000-0  71719-3 0  9991,2 54169  53.2167 130.3453 0001172  87.5881 272.5245 15.08862872 48431,6917.81,95.436,540.486,538.865,0.0
54169.0,STARLINK-5282,PAYLOAD,2023-09-12 01:52:11,15.0885479,0.000141,53.2169,127.0758,94.0985,266.0168,0.00041812,6.375e-05,0.0,0 STARLINK-5282,1 54169U 22141N   23255.07790741  .00006375  00000-0  41812-3 0  9997,2 54169  53.2169 127.0758 0001410  94.0985 266.0168 15.08854790 48541,6917.835,95.437,540.676,538.725,0.0
54169.0,STARLINK-5282,PAYLOAD,2023-09-12 20:56:48,15.08852852,0.0001129,53.2159,123.5065,85.7098,274.4023,0.00049517,7.604e-05,0.0,0 STARLINK-5282,1 54169U 22141N   23255.87278796  .00007604  00000-0  49517-3 0  9992,2 54169  53.2159 123.5065 0001129  85.7098 274.4023 15.08852852 48664,6917.841,95.437,540.487,538.925,0.0
54169.0,STARLINK-5282,PAYLOAD,2023-09-13 01:42:58,15.0885901,0.0001172,53.2159,122.614,82.8376,277.2749,0.00068846,0.00010692,0.0,0 STARLINK-5282,1 54169U 22141N   23256.07150524  .00010692  00000-0  68846-3 0  9990,2 54169  53.2159 122.6140 0001172  82.8376 277.2749 15.08859010 48695,6917.822,95.436,540.498,538.877,0.0
54169.0,STARLINK-5282,PAYLOAD,2023-09-13 20:47:35,15.0884862,0.0001506,53.2165,119.0466,78.0607,282.0553,0.00028434,4.241e-05,0.0,0 STARLINK-5282,1 54169U 22141N   23256.86638394  .00004241  00000-0  28434-3 0  9995,2 54169  53.2165 119.0466 0001506  78.0607 282.0553 15.08848620 48814,6917.854,95.437,540.761,538.677,0.0
54169.0,STARLINK-5282,PAYLOAD,2023-09-14 01:33:44,15.08861484,0.0001288,53.2164,118.1535,82.2421,277.8717,0.00039556,6.017e-05,0.0,0 STARLINK-5282,1 54169U 22141N   23257.06509786  .00006017  00000-0  39556-3 0  9990,2 54169  53.2164 118.1535 0001288  82.2421 277.8717 15.08861484 48848,6917.815,95.436,540.571,538.789,0.0
54169.0,STARLINK-5282,PAYLOAD,2023-09-14 17:27:36,15.08828317,0.0001257,53.2158,115.1799,92.9885,267.1251,-0.00028037,-4.746e-05,0.0,0 STARLINK-5282,1 54169U 22141N   23257.72750990 -.00004746  00000-0 -28037-3 0  9999,2 54169  53.2158 115.1799 0001257  92.9885 267.1251 15.08828317 48942,6917.916,95.438,540.651,538.912,0.0
54169.0,STARLINK-5282,PAYLOAD,2023-09-14 20:38:23,15.08829966,0.0001391,53.216,114.5852,84.7732,275.3419,-0.00019557,-3.398e-05,0.0,0 STARLINK-5282,1 54169U 22141N   23257.85999178 -.00003398  00000-0 -19557-3 0  9995,2 54169  53.2160 114.5852 0001391  84.7732 275.3419 15.08829966 48967,6917.911,95.438,540.738,538.814,0.0
54169.0,STARLINK-5282,PAYLOAD,2023-09-14 23:49:09,15.08833806,0.0001401,53.2163,113.9903,82.5491,277.5661,-0.00010046,-1.886e-05,0.0,0 STARLINK-5282,1 54169U 22141N   23257.99247332 -.00001886  00000-0 -10046-3 0  9992,2 54169  53.2163 113.9903 0001401  82.5491 277.5661 15.08833806 48983,6917.899,95.438,540.734,538.795,0.0
54169.0,STARLINK-5282,PAYLOAD,2023-09-15 22:04:32,15.08852027,0.000133,53.2159,109.8273,85.822,274.2924,0.00020002,2.898e-05,0.0,0 STARLINK-5282,1 54169U 22141N   23258.91982623  .00002898  00000-0  20002-3 0  9999,2 54169  53.2159 109.8273 0001330  85.8220 274.2924 15.08852027 49128,6917.844,95.437,540.629,538.789,0.0
54169.0,STARLINK-5282,PAYLOAD,2023-09-16 23:30:43,15.08848604,0.0001371,53.2153,105.0689,87.008,273.1069,0.00034104,5.145e-05,0.0,0 STARLINK-5282,1 54169U 22141N   23259.97967184  .00005145  00000-0  34104-3 0  9997,2 54169  53.2153 105.0689 0001371  87.0080 273.1069 15.08848604 49285,6917.854,95.437,540.668,538.771,0.0
54169.0,STARLINK-5282,PAYLOAD,2023-09-17 18:35:21,15.08846175,0.0001473,53.2163,101.4998,92.8491,267.2669,0.00013357,1.839e-05,0.0,0 STARLINK-5282,1 54169U 22141N   23260.77455082  .00001839  00000-0  13357-3 0  9999,2 54169  53.2163 101.4998 0001473  92.8491 267.2669 15.08846175 49407,6917.862,95.437,540.746,538.708,0.0
54169.0,STARLINK-5282,PAYLOAD,2023-09-17 23:21:30,15.08850462,0.0001348,53.2158,100.6074,89.3543,270.7604,0.000191,2.754e-05,0.0,0 STARLINK-5282,1 54169U 22141N   23260.97326867  .00002754  00000-0  19100-3 0  9998,2 54169  53.2158 100.6074 0001348  89.3543 270.7604 15.08850462 49432,6917.848,95.437,540.646,538.781,0.0
54169.0,STARLINK-5282,PAYLOAD,2023-09-18 16:50:45,15.08837844,0.0001353,53.2161,97.334,90.9825,269.1322,7.2099e-05,8.6e-06,0.0,0 STARLINK-5282,1 54169U 22141N   23261.70191447  .00000860  00000-0  72099-4 0  9997,2 54169  53.2161  97.3340 0001353  90.9825 269.1322 15.08837844 49541,6917.887,95.438,540.688,538.816,0.0
54169.0,STARLINK-5282,PAYLOAD,2023-09-18 20:01:31,15.0884153,0.0001317,53.2156,96.739,88.2165,271.8978,0.00020875,3.036e-05,0.0,0 STARLINK-5282,1 54169U 22141N   23261.83439347  .00003036  00000-0  20875-3 0  9997,2 54169  53.2156  96.7390 0001317  88.2165 271.8978 15.08841530 49566,6917.876,95.437,540.652,538.83,0.0
54169.0,STARLINK-5282,PAYLOAD,2023-09-19 00:47:40,15.08847336,0.000141,53.2169,95.8489,91.5967,268.5186,0.00016379,2.32e-05,0.0,0 STARLINK-5282,1 54169U 22141N   23262.03310987  .00002320  00000-0  16379-3 0  9997,2 54169  53.2169  95.8489 0001410  91.5967 268.5186 15.08847336 49597,6917.858,95.437,540.698,538.748,0.0
54169.0,STARLINK-5282,PAYLOAD,2023-09-19 18:16:55,15.08844344,0.000133,53.2163,92.5785,87.6196,272.4949,6.3715e-05,7.26e-06,0.0,0 STARLINK-5282,1 54169U 22141N   23262.76174942  .00000726  00000-0  63715-4 0  9991,2 54169  53.2163  92.5785 0001330  87.6196 272.4949 15.08844344 49705,6917.867,95.437,540.652,538.812,0.0
54169.0,STARLINK-5282,PAYLOAD,2023-09-20 18:07:43,15.08821573,0.0001557,53.2171,88.1196,104.4106,255.7059,4.6084e-05,4.45e-06,0.0,0 STARLINK-5282,1 54169U 22141N   23263.75536745  .00000445  00000-0  46084-4 0  9992,2 54169  53.2171  88.1196 0001557 104.4106 255.7059 15.08821573 49852,6917.937,95.439,540.879,538.725,0.0
54169.0,STARLINK-5282,PAYLOAD,2023-09-20 21:18:29,15.08826483,0.0001378,53.2164,87.5242,88.7485,271.3664,-0.00010389,-1.94e-05,0.0,0 STARLINK-5282,1 54169U 22141N   23263.88784635 -.00001940  00000-0 -10389-3 0  9990,2 54169  53.2164  87.5242 0001378  88.7485 271.3664 15.08826483 49877,6917.922,95.438,540.74,538.833,0.0
54169.0,STARLINK-5282,PAYLOAD,2023-09-21 05:15:25,15.08832391,0.0001408,53.2162,86.0372,89.3167,270.7987,-3.5168e-05,-8.47e-06,0.0,0 STARLINK-5282,1 54169U 22141N   23264.21904568 -.00000847  00000-0 -35168-4 0  9995,2 54169  53.2162  86.0372 0001408  89.3167 270.7987 15.08832391 49923,6917.904,95.438,540.743,538.795,0.0
